NORAD_CAT_ID,OBJECT_NAME,OBJECT_TYPE,EPOCH,MEAN_MOTION,ECCENTRICITY,INCLINATION,RA_OF_ASC_NODE,ARG_OF_PERICENTER,MEAN_ANOMALY,BSTAR,MEAN_MOTION_DOT,MEAN_MOTION_DDOT,TLE_LINE0,TLE_LINE1,TLE_LINE2,SEMIMAJOR_AXIS,PERIOD,APOGEE,PERIGEE,DECAYED
52840.0,STARLINK-4049,PAYLOAD,2023-12-05 20:32:47,15.08852681,0.000217,53.2145,136.9524,80.0636,280.0601,0.00052288,8.046e-05,0.0,0 STARLINK-4049,1 52840U 22062L   23339.85610319  .00008046  00000-0  52288-3 0  9990,2 52840  53.2145 136.9524 0002170  80.0636 280.0601 15.08852681 81262,6917.842,95.437,541.208,538.205,0.0
52840.0,STARLINK-4049,PAYLOAD,2023-12-07 10:42:01,15.0884602,0.0003277,53.2151,129.8115,112.6938,247.4401,-6.809e-05,-1.373e-05,0.0,0 STARLINK-4049,1 52840U 22062L   23341.44585213 -.00001373  00000-0 -68090-4 0  9999,2 52840  53.2151 129.8115 0003277 112.6938 247.4401 15.08846020 81997,6917.862,95.437,541.994,537.46,0.0
52840.0,STARLINK-4049,PAYLOAD,2023-12-08 12:08:12,15.08838821,0.0001109,53.2154,125.0556,74.4983,285.6132,2.0241e-05,3.4e-07,0.0,0 STARLINK-4049,1 52840U 22062L   23342.50569502  .00000034  00000-0  20241-4 0  9997,2 52840  53.2154 125.0556 0001109  74.4983 285.6132 15.08838821 81663,6917.884,95.438,540.516,538.982,0.0
52840.0,STARLINK-4049,PAYLOAD,2023-12-08 18:29:44,15.08841135,0.0001159,53.2155,123.8656,81.5025,278.6099,-4.869e-05,-1.063e-05,0.0,0 STARLINK-4049,1 52840U 22062L   23342.77065356 -.00001063  00000-0 -48690-4 0  9997,2 52840  53.2155 123.8656 0001159  81.5025 278.6099 15.08841135 82197,6917.877,95.437,540.544,538.94,0.0
52840.0,STARLINK-4049,PAYLOAD,2023-12-08 20:05:07,15.08836764,0.0001347,53.2145,123.5689,82.0712,278.0433,7.594e-05,9.21e-06,0.0,0 STARLINK-4049,1 52840U 22062L   23342.83689660  .00000921  00000-0  75940-4 0  9992,2 52840  53.2145 123.5689 0001347  82.0712 278.0433 15.08836764 81712,6917.89,95.438,540.687,538.823,0.0
52840.0,STARLINK-4049,PAYLOAD,2023-12-09 13:34:23,15.08832245,0.000127,53.2162,120.2974,84.098,276.0157,4.6568e-05,4.53e-06,0.0,0 STARLINK-4049,1 52840U 22062L   23343.56554562  .00000453  00000-0  46568-4 0  9999,2 52840  53.2162 120.2974 0001270  84.0980 276.0157 15.08832245 81829,6917.904,95.438,540.648,538.891,0.0
52840.0,STARLINK-4049,PAYLOAD,2023-12-09 18:20:32,15.08835113,0.0001359,53.2158,119.4054,83.6341,276.4806,6.97e-05,8.21e-06,0.0,0 STARLINK-4049,1 52840U 22062L   23343.76426406  .00000821  00000-0  69700-4 0  9998,2 52840  53.2158 119.4054 0001359  83.6341 276.4806 15.08835113 82347,6917.895,95.438,540.7,538.82,0.0
52840.0,STARLINK-4049,PAYLOAD,2023-12-10 13:25:09,15.08844509,0.0001348,53.2166,115.8362,82.8047,277.3098,0.0001317,1.809e-05,0.0,0 STARLINK-4049,1 52840U 22062L   23344.55913711  .00001809  00000-0  13170-3 0  9992,2 52840  53.2166 115.8362 0001348  82.8047 277.3098 15.08844509 81970,6917.867,95.437,540.664,538.799,0.0
52840.0,STARLINK-4049,PAYLOAD,2023-12-10 16:35:55,15.08847623,0.0001325,53.2172,115.2411,78.1611,281.953,0.00015768,2.223e-05,0.0,0 STARLINK-4049,1 52840U 22062L   23344.69161471  .00002223  00000-0  15768-3 0  9991,2 52840  53.2172 115.2411 0001325  78.1611 281.9530 15.08847623 82485,6917.857,95.437,540.639,538.805,0.0
52840.0,STARLINK-4049,PAYLOAD,2023-12-11 14:51:18,15.08855004,0.0001308,53.2172,111.0789,121.4486,238.6634,0.00021488,3.135e-05,0.0,0 STARLINK-4049,1 52840U 22062L   23345.61896843  .00003135  00000-0  21488-3 0  9991,2 52840  53.2172 111.0789 0001308 121.4486 238.6634 15.08855004 82138,6917.835,95.437,540.604,538.795,0.0
52840.0,STARLINK-4049,PAYLOAD,2023-12-12 11:31:20,15.08844921,0.0001409,53.2179,107.2141,75.5145,284.6003,2.9215e-06,-2.41e-06,0.0,0 STARLINK-4049,1 52840U 22062L   23346.48010057 -.00000241  00000-0  29215-5 0  9996,2 52840  53.2179 107.2141 0001409  75.5145 284.6003 15.08844921 82752,6917.865,95.437,540.705,538.756,0.0
52840.0,STARLINK-4049,PAYLOAD,2023-12-12 13:06:43,15.08845164,0.0001404,53.2179,106.9171,80.5469,279.5681,3.7889e-06,-2.28e-06,0.0,0 STARLINK-4049,1 52840U 22062L   23346.54633997 -.00000228  00000-0  37889-5 0  9998,2 52840  53.2179 106.9171 0001404  80.5469 279.5681 15.08845164 82273,6917.865,95.437,540.701,538.758,0.0
52840.0,STARLINK-4049,PAYLOAD,2023-12-12 14:42:06,15.08844531,0.0001489,53.2177,106.6205,80.7632,279.3528,3.4053e-05,2.54e-06,0.0,0 STARLINK-4049,1 52840U 22062L   23346.61258012  .00000254  00000-0  34053-4 0  9994,2 52840  53.2177 106.6205 0001489  80.7632 279.3528 15.08844531 82289,6917.867,95.437,540.762,538.701,0.0
52840.0,STARLINK-4049,PAYLOAD,2023-12-13 14:32:53,15.08828569,0.0001344,53.2175,102.1568,111.311,248.8026,0.00047276,7.242e-05,0.0,0 STARLINK-4049,1 52840U 22062L   23347.60617640  .00007242  00000-0  47276-3 0  9994,2 52840  53.2175 102.1568 0001344 111.3110 248.8026 15.08828569 82436,6917.915,95.438,540.71,538.851,0.0
52840.0,STARLINK-4049,PAYLOAD,2023-12-14 14:23:40,15.08843127,0.0001496,53.2171,97.6964,105.7247,254.391,0.00010421,1.371e-05,0.0,0 STARLINK-4049,1 52840U 22062L   23348.59977649  .00001371  00000-0  10421-3 0  9990,2 52840  53.2171  97.6964 0001496 105.7247 254.3910 15.08843127 82583,6917.871,95.437,540.771,538.701,0.0
52840.0,STARLINK-4049,PAYLOAD,2023-12-14 22:20:36,15.0884444,0.0001354,53.2167,96.2067,95.1144,265.0003,8.9283e-05,1.133e-05,0.0,0 STARLINK-4049,1 52840U 22062L   23348.93097486  .00001133  00000-0  89283-4 0  9999,2 52840  53.2167  96.2067 0001354  95.1144 265.0003 15.08844440 83120,6917.867,95.437,540.668,538.795,0.0
52840.0,STARLINK-4049,PAYLOAD,2023-12-15 11:03:41,15.08831415,0.0001331,53.2167,93.8306,89.9267,270.1878,-0.00017494,-3.07e-05,0.0,0 STARLINK-4049,1 52840U 22062L   23349.46090224 -.00003070  00000-0 -17494-3 0  9999,2 52840  53.2167  93.8306 0001331  89.9267 270.1878 15.08831415 83205,6917.907,95.438,540.692,538.851,0.0
52840.0,STARLINK-4049,PAYLOAD,2023-12-15 12:39:05,15.08832367,0.0001354,53.2167,93.5329,90.3504,269.7643,-0.00015295,-2.721e-05,0.0,0 STARLINK-4049,1 52840U 22062L   23349.52714210 -.00002721  00000-0 -15295-3 0  9993,2 52840  53.2167  93.5329 0001354  90.3504 269.7643 15.08832367 82729,6917.904,95.438,540.705,538.832,0.0
52840.0,STARLINK-4049,PAYLOAD,2023-12-16 10:54:28,15.08843465,0.0001375,53.2171,89.3712,89.976,270.1389,0.0001366,1.887e-05,0.0,0 STARLINK-4049,1 52840U 22062L   23350.45450105  .00001887  00000-0  13660-3 0  9991,2 52840  53.2171  89.3712 0001375  89.9760 270.1389 15.08843465 83358,6917.87,95.437,540.686,538.784,0.0
52840.0,STARLINK-4049,PAYLOAD,2023-12-16 14:05:15,15.08848141,0.0001382,53.2168,88.7788,75.8528,284.2618,0.00031808,4.779e-05,0.0,0 STARLINK-4049,1 52840U 22062L   23350.58698119  .00004779  00000-0  31808-3 0  9991,2 52840  53.2168  88.7788 0001382  75.8528 284.2618 15.08848141 82888,6917.856,95.437,540.677,538.764,0.0
52840.0,STARLINK-4049,PAYLOAD,2023-12-17 12:20:40,15.08835886,0.0002541,53.2178,84.6187,42.0654,318.0533,0.00020005,2.897e-05,0.0,0 STARLINK-4049,1 52840U 22062L   23351.51435190  .00002897  00000-0  20005-3 0  9999,2 52840  53.2178  84.6187 0002541  42.0654 318.0533 15.08835886 83516,6917.893,95.438,541.516,538.0,0.0
52840.0,STARLINK-4049,PAYLOAD,2023-12-17 13:56:02,15.08842798,0.0001668,53.2182,84.3173,70.49,289.6273,0.00020937,3.046e-05,0.0,0 STARLINK-4049,1 52840U 22062L   23351.58058631  .00003046  00000-0  20937-3 0  9998,2 52840  53.2182  84.3173 0001668  70.4900 289.6273 15.08842798 83032,6917.872,95.437,540.891,538.583,0.0
52840.0,STARLINK-4049,PAYLOAD,2023-12-18 12:11:25,15.08857112,0.0001953,53.2171,80.1515,60.5728,299.5459,0.0004119,6.276e-05,0.0,0 STARLINK-4049,1 52840U 22062L   23352.50793948  .00006276  00000-0  41190-3 0  9990,2 52840  53.2171  80.1515 0001953  60.5728 299.5459 15.08857112 83660,6917.828,95.436,541.044,538.342,0.0
52840.0,STARLINK-4049,PAYLOAD,2023-12-18 13:46:48,15.08862732,0.0001989,53.2176,79.8582,62.3556,297.7638,0.00055168,8.508e-05,0.0,0 STARLINK-4049,1 52840U 22062L   23352.57417818  .00008508  00000-0  55168-3 0  9996,2 52840  53.2176  79.8582 0001989  62.3556 297.7638 15.08862732 83182,6917.811,95.436,541.052,538.3,0.0
52840.0,STARLINK-4049,PAYLOAD,2023-12-19 12:02:13,15.08848742,0.0001878,53.217,75.698,72.7861,287.3337,0.00024112,3.552e-05,0.0,0 STARLINK-4049,1 52840U 22062L   23353.50154043  .00003552  00000-0  24112-3 0  9997,2 52840  53.2170  75.6980 0001878  72.7861 287.3337 15.08848742 83819,6917.854,95.437,541.018,538.419,0.0
52840.0,STARLINK-4049,PAYLOAD,2023-12-20 11:53:00,15.08829805,0.0001702,53.217,71.2369,97.4018,262.7168,0.00036369,5.503e-05,0.0,0 STARLINK-4049,1 52840U 22062L   23354.49514949  .00005503  00000-0  36369-3 0  9996,2 52840  53.2170  71.2369 0001702  97.4018 262.7168 15.08829805 83960,6917.912,95.438,540.954,538.599,0.0
52840.0,STARLINK-4049,PAYLOAD,2023-12-21 11:43:47,15.08859152,0.0001714,53.2175,66.7724,94.1405,265.9783,0.00090239,0.0001411,0.0,0 STARLINK-4049,1 52840U 22062L   23355.48874803  .00014110  00000-0  90239-3 0  9994,2 52840  53.2175  66.7724 0001714  94.1405 265.9783 15.08859152 84110,6917.822,95.436,540.873,538.501,0.0
52840.0,STARLINK-4049,PAYLOAD,2023-12-22 11:34:34,15.08850861,0.0001695,53.2177,62.3126,105.7457,254.3722,0.00056241,8.677e-05,0.0,0 STARLINK-4049,1 52840U 22062L   23356.48234883  .00008677  00000-0  56241-3 0  9999,2 52840  53.2177  62.3126 0001695 105.7457 254.3722 15.08850861 84263,6917.847,95.437,540.885,538.54,0.0
52840.0,STARLINK-4049,PAYLOAD,2023-12-23 03:28:26,15.08837093,0.0001892,53.218,59.3394,118.6654,241.4528,0.00075402,0.00011732,0.0,0 STARLINK-4049,1 52840U 22062L   23357.14475013  .00011732  00000-0  75402-3 0  9991,2 52840  53.2180  59.3394 0001892 118.6654 241.4528 15.08837093 84365,6917.889,95.438,541.063,538.445,0.0
52840.0,STARLINK-4049,PAYLOAD,2023-12-23 09:49:59,15.08836222,0.000179,53.2183,58.1485,103.3537,256.7655,0.00085238,0.00013302,0.0,0 STARLINK-4049,1 52840U 22062L   23357.40971398  .00013302  00000-0  85238-3 0  9990,2 52840  53.2183  58.1485 0001790 103.3537 256.7655 15.08836222 83917,6917.892,95.438,540.995,538.519,0.0
